start=new Date('2022-08-16T00:00:00.000Z').valueOf();
sats=[{"REV_AT_EPOCH":"8403","EPHEMERIS_TYPE":"0","TLE_LINE1":"1 47664U 21012AW  22227.71646341  .00001474  00000-0  11784-3 0  9990","LAUNCH_DATE":"2021-02-16","CENTER_NAME":"EARTH","SITE":"AFETR","DECAY_DATE":null,"MEAN_MOTION_DDOT":"0.0000000000000","MEAN_ANOMALY":"281.4988","GP_ID":"210298401","MEAN_ELEMENT_THEORY":"SGP4","OBJECT_ID":"2021-012AW","CLASSIFICATION_TYPE":"U","SEMIMAJOR_AXIS":"6925.371","OBJECT_TYPE":"PAYLOAD","BSTAR":"0.00011784000000","TIME_SYSTEM":"UTC","ELEMENT_SET_NO":"999","PERIOD":"95.593","ARG_OF_PERICENTER":"78.6163","RA_OF_ASC_NODE":"136.4170","FILE":"3537378","REF_FRAME":"TEME","INCLINATION":"53.0557","NORAD_CAT_ID":"47664","RCS_SIZE":"LARGE","MEAN_MOTION_DOT":"0.00001474","COUNTRY_CODE":"US","APOAPSIS":"548.232","TLE_LINE2":"2 47664  53.0557 136.4170 0001438  78.6163 281.4988 15.06392666 84032","OBJECT_NAME":"STARLINK-2054","ECCENTRICITY":"0.00014380","PERIAPSIS":"546.240","EPOCH":"2022-08-15T17:11:42.438624","MEAN_MOTION":"15.06392666"},{"MEAN_ANOMALY":"277.4258","MEAN_MOTION_DDOT":"0.0000000000000","DECAY_DATE":null,"SITE":"AFETR","CENTER_NAME":"EARTH","LAUNCH_DATE":"2021-02-16","TLE_LINE1":"1 47665U 21012AX  22227.16587925 -.00000182  00000-0  66973-5 0  9990","EPHEMERIS_TYPE":"0","REV_AT_EPOCH":"8349","RA_OF_ASC_NODE":"133.9321","ARG_OF_PERICENTER":"82.6900","PERIOD":"95.592","ELEMENT_SET_NO":"999","TIME_SYSTEM":"UTC","SEMIMAJOR_AXIS":"6925.340","OBJECT_TYPE":"PAYLOAD","BSTAR":"0.00000669730000","CLASSIFICATION_TYPE":"U","OBJECT_ID":"2021-012AX","MEAN_ELEMENT_THEORY":"SGP4","GP_ID":"210273227","RCS_SIZE":"LARGE","NORAD_CAT_ID":"47665","INCLINATION":"53.0548","REF_FRAME":"TEME","FILE":"3537210","MEAN_MOTION":"15.06402652","EPOCH":"2022-08-15T03:58:51.967200","PERIAPSIS":"546.174","ECCENTRICITY":"0.00014890","OBJECT_NAME":"STARLINK-2056","TLE_LINE2":"2 47665  53.0548 133.9321 0001489  82.6900 277.4258 15.06402652 83494","APOAPSIS":"548.237","COUNTRY_CODE":"US","MEAN_MOTION_DOT":"-0.00000182"},{"MEAN_ANOMALY":"280.3051","SITE":"AFETR","LAUNCH_DATE":"2021-02-16","CENTER_NAME":"EARTH","MEAN_MOTION_DDOT":"0.0000000000000","DECAY_DATE":null,"TLE_LINE1":"1 47666U 21012AY  22227.75935502 -.00000834  00000-0 -37116-4 0  9995","REV_AT_EPOCH":"8410","EPHEMERIS_TYPE":"0","ARG_OF_PERICENTER":"79.8108","PERIOD":"95.592","RA_OF_ASC_NODE":"131.5680","TIME_SYSTEM":"UTC","ELEMENT_SET_NO":"999","OBJECT_TYPE":"PAYLOAD","SEMIMAJOR_AXIS":"6925.333","BSTAR":"-0.00003711600000","OBJECT_ID":"2021-012AY","GP_ID":"210297400","MEAN_ELEMENT_THEORY":"SGP4","CLASSIFICATION_TYPE":"U","INCLINATION":"53.0551","RCS_SIZE":"LARGE","NORAD_CAT_ID":"47666","REF_FRAME":"TEME","FILE":"3537378","MEAN_MOTION":"15.06405170","EPOCH":"2022-08-15T18:13:28.273728","ECCENTRICITY":"0.00015090","OBJECT_NAME":"STARLINK-2057","PERIAPSIS":"546.153","TLE_LINE2":"2 47666  53.0551 131.5680 0001509  79.8108 280.3051 15.06405170 84103","APOAPSIS":"548.243","COUNTRY_CODE":"US","MEAN_MOTION_DOT":"-0.00000834"},{"ELEMENT_SET_NO":"999","TIME_SYSTEM":"UTC","RA_OF_ASC_NODE":"156.2761","ARG_OF_PERICENTER":"76.3593","PERIOD":"95.592","CLASSIFICATION_TYPE":"U","OBJECT_ID":"2021-012AZ","GP_ID":"210297650","MEAN_ELEMENT_THEORY":"SGP4","OBJECT_TYPE":"PAYLOAD","BSTAR":"0.00005619900000","SEMIMAJOR_AXIS":"6925.343","MEAN_MOTION_DDOT":"0.0000000000000","DECAY_DATE":null,"SITE":"AFETR","CENTER_NAME":"EARTH","LAUNCH_DATE":"2021-02-16","MEAN_ANOMALY":"283.7564","EPHEMERIS_TYPE":"0","REV_AT_EPOCH":"8373","TLE_LINE1":"1 47667U 21012AZ  22227.74778814  .00000556  00000-0  56199-4 0  9997","PERIAPSIS":"546.165","ECCENTRICITY":"0.00015060","OBJECT_NAME":"STARLINK-2058","EPOCH":"2022-08-15T17:56:48.895296","MEAN_MOTION":"15.06401956","COUNTRY_CODE":"US","MEAN_MOTION_DOT":"0.00000556","TLE_LINE2":"2 47667  53.0547 156.2761 0001506  76.3593 283.7564 15.06401956 83732","APOAPSIS":"548.251","RCS_SIZE":"LARGE","NORAD_CAT_ID":"47667","INCLINATION":"53.0547","FILE":"3537378","REF_FRAME":"TEME"},{"NORAD_CAT_ID":"47668","RCS_SIZE":"LARGE","INCLINATION":"53.0537","FILE":"3537056","REF_FRAME":"TEME","PERIAPSIS":"546.204","OBJECT_NAME":"STARLINK-2059","ECCENTRICITY":"0.00014440","MEAN_MOTION":"15.06402955","EPOCH":"2022-08-15T04:38:00.295008","MEAN_MOTION_DOT":"-0.00000656","COUNTRY_CODE":"US","APOAPSIS":"548.205","TLE_LINE2":"2 47668  53.0537 138.7497 0001444  82.0811 278.0342 15.06402955 83956","DECAY_DATE":null,"MEAN_MOTION_DDOT":"0.0000000000000","LAUNCH_DATE":"2021-02-16","CENTER_NAME":"EARTH","SITE":"AFETR","MEAN_ANOMALY":"278.0342","EPHEMERIS_TYPE":"0","REV_AT_EPOCH":"8395","TLE_LINE1":"1 47668U 21012BA  22227.19305897 -.00000656  00000-0 -25170-4 0  9992","ELEMENT_SET_NO":"999","TIME_SYSTEM":"UTC","RA_OF_ASC_NODE":"138.7497","PERIOD":"95.592","ARG_OF_PERICENTER":"82.0811","CLASSIFICATION_TYPE":"U","MEAN_ELEMENT_THEORY":"SGP4","GP_ID":"210266823","OBJECT_ID":"2021-012BA","SEMIMAJOR_AXIS":"6925.340","OBJECT_TYPE":"PAYLOAD","BSTAR":"-0.00002517000000"},{"REF_FRAME":"TEME","FILE":"3537378","RCS_SIZE":"LARGE","NORAD_CAT_ID":"47669","INCLINATION":"53.0537","TLE_LINE2":"2 47669  53.0537  59.0805 0002239  61.2175 298.9040 15.10340576 85098","APOAPSIS":"536.710","COUNTRY_CODE":"US","MEAN_MOTION_DOT":"0.00015233","MEAN_MOTION":"15.10340576","EPOCH":"2022-08-15T19:18:25.818336","PERIAPSIS":"533.615","ECCENTRICITY":"0.00022390","OBJECT_NAME":"STARLINK-2060","TLE_LINE1":"1 47669U 21012BB  22227.80446549  .00015233  00000-0  93397-3 0  9991","EPHEMERIS_TYPE":"0","REV_AT_EPOCH":"8509","MEAN_ANOMALY":"298.9040","MEAN_MOTION_DDOT":"0.0000000000000","DECAY_DATE":null,"SITE":"AFETR","CENTER_NAME":"EARTH","LAUNCH_DATE":"2021-02-16","OBJECT_TYPE":"PAYLOAD","SEMIMAJOR_AXIS":"6913.298","BSTAR":"0.00093397000000","CLASSIFICATION_TYPE":"U","OBJECT_ID":"2021-012BB","GP_ID":"210298644","MEAN_ELEMENT_THEORY":"SGP4","RA_OF_ASC_NODE":"59.0805","ARG_OF_PERICENTER":"61.2175","PERIOD":"95.343","ELEMENT_SET_NO":"999","TIME_SYSTEM":"UTC"},{"REF_FRAME":"TEME","FILE":"3537056","INCLINATION":"53.0553","RCS_SIZE":"LARGE","NORAD_CAT_ID":"47670","TLE_LINE2":"2 47670  53.0553 138.9823 0001820  68.8384 291.2800 15.06404427 83937","APOAPSIS":"548.460","COUNTRY_CODE":"US","MEAN_MOTION_DOT":"0.00000475","EPOCH":"2022-08-15T03:23:41.653248","MEAN_MOTION":"15.06404427","ECCENTRICITY":"0.00018200","OBJECT_NAME":"STARLINK-2062","PERIAPSIS":"545.940","TLE_LINE1":"1 47670U 21012BC  22227.14145432  .00000475  00000-0  50759-4 0  9995","REV_AT_EPOCH":"8393","EPHEMERIS_TYPE":"0","MEAN_ANOMALY":"291.2800","SITE":"AFETR","LAUNCH_DATE":"2021-02-16","CENTER_NAME":"EARTH","MEAN_MOTION_DDOT":"0.0000000000000","DECAY_DATE":null,"OBJECT_TYPE":"PAYLOAD","SEMIMAJOR_AXIS":"6925.335","BSTAR":"0.00005075900000","OBJECT_ID":"2021-012BC","GP_ID":"210267318","MEAN_ELEMENT_THEORY":"SGP4","CLASSIFICATION_TYPE":"U","ARG_OF_PERICENTER":"68.8384","PERIOD":"95.592","RA_OF_ASC_NODE":"138.9823","TIME_SYSTEM":"UTC","ELEMENT_SET_NO":"999"},{"EPOCH":"2022-08-15T04:32:42.237600","MEAN_MOTION":"15.06393069","ECCENTRICITY":"0.00015010","OBJECT_NAME":"STARLINK-2064","PERIAPSIS":"546.195","TLE_LINE2":"2 47671  53.0538 138.7596 0001501  75.8745 284.2410 15.06393069 83951","APOAPSIS":"548.274","COUNTRY_CODE":"US","MEAN_MOTION_DOT":"0.00000078","INCLINATION":"53.0538","RCS_SIZE":"LARGE","NORAD_CAT_ID":"47671","REF_FRAME":"TEME","FILE":"3537056","ARG_OF_PERICENTER":"75.8745","PERIOD":"95.593","RA_OF_ASC_NODE":"138.7596","TIME_SYSTEM":"UTC","ELEMENT_SET_NO":"999","OBJECT_TYPE":"PAYLOAD","BSTAR":"0.00002416300000","SEMIMAJOR_AXIS":"6925.370","OBJECT_ID":"2021-012BD","GP_ID":"210268064","MEAN_ELEMENT_THEORY":"SGP4","CLASSIFICATION_TYPE":"U","MEAN_ANOMALY":"284.2410","SITE":"AFETR","LAUNCH_DATE":"2021-02-16","CENTER_NAME":"EARTH","MEAN_MOTION_DDOT":"0.0000000000000","DECAY_DATE":null,"TLE_LINE1":"1 47671U 21012BD  22227.18937775  .00000078  00000-0  24163-4 0  9998","REV_AT_EPOCH":"8395","EPHEMERIS_TYPE":"0"},{"FILE":"3537378","REF_FRAME":"TEME","INCLINATION":"53.0559","RCS_SIZE":"LARGE","NORAD_CAT_ID":"47672","COUNTRY_CODE":"US","MEAN_MOTION_DOT":"0.00002265","TLE_LINE2":"2 47672  53.0559 126.1948 0001413  83.0374 277.0775 15.06387917 84150","APOAPSIS":"548.229","ECCENTRICITY":"0.00014130","OBJECT_NAME":"STARLINK-2065","PERIAPSIS":"546.272","MEAN_MOTION":"15.06387917","EPOCH":"2022-08-15T18:22:02.491104","REV_AT_EPOCH":"8415","EPHEMERIS_TYPE":"0","TLE_LINE1":"1 47672U 21012BE  22227.76530661  .00002265  00000-0  17094-3 0  9990","SITE":"AFETR","CENTER_NAME":"EARTH","LAUNCH_DATE":"2021-02-16","MEAN_MOTION_DDOT":"0.0000000000000","DECAY_DATE":null,"MEAN_ANOMALY":"277.0775","OBJECT_ID":"2021-012BE","MEAN_ELEMENT_THEORY":"SGP4","GP_ID":"210298402","CLASSIFICATION_TYPE":"U","OBJECT_TYPE":"PAYLOAD","BSTAR":"0.00017094000000","SEMIMAJOR_AXIS":"6925.386","TIME_SYSTEM":"UTC","ELEMENT_SET_NO":"999","ARG_OF_PERICENTER":"83.0374","PERIOD":"95.593","RA_OF_ASC_NODE":"126.1948"},{"NORAD_CAT_ID":"47673","RCS_SIZE":"LARGE","INCLINATION":"53.0543","FILE":"3537378","REF_FRAME":"TEME","PERIAPSIS":"546.110","OBJECT_NAME":"STARLINK-2066","ECCENTRICITY":"0.00016110","EPOCH":"2022-08-15T17:48:51.917184","MEAN_MOTION":"15.06396004","MEAN_MOTION_DOT":"0.00001483","COUNTRY_CODE":"US","APOAPSIS":"548.341","TLE_LINE2":"2 47673  53.0543 136.3011 0001611  63.5242 296.5912 15.06396004 84027","DECAY_DATE":null,"MEAN_MOTION_DDOT":"0.0000000000000","LAUNCH_DATE":"2021-02-16","CENTER_NAME":"EARTH","SITE":"AFETR","MEAN_ANOMALY":"296.5912","EPHEMERIS_TYPE":"0","REV_AT_EPOCH":"8402","TLE_LINE1":"1 47673U 21012BF  22227.74226756  .00001483  00000-0  11844-3 0  9994","ELEMENT_SET_NO":"999","TIME_SYSTEM":"UTC","RA_OF_ASC_NODE":"136.3011","PERIOD":"95.592","ARG_OF_PERICENTER":"63.5242","CLASSIFICATION_TYPE":"U","GP_ID":"210299144","MEAN_ELEMENT_THEORY":"SGP4","OBJECT_ID":"2021-012BF","SEMIMAJOR_AXIS":"6925.361","OBJECT_TYPE":"PAYLOAD","BSTAR":"0.00011844000000"}];
